QIANFAN-9               
1 60387U 24140J   25336.24136001  .00000096  00000+0  13003-3 0  9995
2 60387  88.9752 300.4232 0014601 224.2962 135.7022 13.50979234 65912
QIANFAN-10              
1 60388U 24140K   25336.24555125  .00000077  00000+0  10136-3 0  9991
2 60388  88.9762 299.7689 0013632 198.9110 161.1536 13.50979753 66049
QIANFAN-11              
1 60389U 24140L   25336.20854482  .00000083  00000+0  10955-3 0  9992
2 60389  88.9688 300.3679 0012644 223.4564 136.5591 13.50976023 65698
QIANFAN-12              
1 60390U 24140M   25336.22904652  .00000095  00000+0  12871-3 0  9993
2 60390  88.9731 300.4045 0011323 232.3581 127.6543 13.50976726 65821
QIANFAN-13              
1 60391U 24140N   25336.27431217  .00000109  00000+0  15054-3 0  9993
2 60391  88.9743 300.4985 0011117 235.2647 124.7458 13.50977326 65857
QIANFAN-14              
1 60392U 24140P   25336.22483639  .00000083  00000+0  11034-3 0  9999
2 60392  88.9722 300.4034 0014790 236.1723 123.8021 13.50976794 65859
QIANFAN-15              
1 60393U 24140Q   25336.23311685  .00000092  00000+0  12456-3 0  9991
2 60393  88.9745 300.3565 0010841 219.2120 140.8246 13.50975577 65844
QIANFAN-16              
1 60394U 24140R   25336.22091662  .00000086  00000+0  11468-3 0  9996
2 60394  88.9748 300.4777 0012690 240.2347 119.7542 13.50975703 65758
